NORAD_CAT_ID,OBJECT_NAME,OBJECT_TYPE,EPOCH,MEAN_MOTION,ECCENTRICITY,INCLINATION,RA_OF_ASC_NODE,ARG_OF_PERICENTER,MEAN_ANOMALY,BSTAR,MEAN_MOTION_DOT,MEAN_MOTION_DDOT,TLE_LINE0,TLE_LINE1,TLE_LINE2,SEMIMAJOR_AXIS,PERIOD,APOGEE,PERIGEE,DECAYED
49415.0,STARLINK-3159,PAYLOAD,2024-02-13 15:14:16,15.08841243,0.0001565,53.2185,8.6904,94.7762,265.3409,1.2709e-05,-8.6e-07,0.0,0 STARLINK-3159,1 49415U 21104H   24044.63491052 -.00000086  00000-0  12709-4 0  9993,2 49415  53.2185   8.6904 0001565  94.7762 265.3409 15.08841243124774,6917.877,95.437,540.824,538.659,0.0
49415.0,STARLINK-3159,PAYLOAD,2024-02-14 02:21:58,15.08846672,0.0001615,53.2184,6.6086,104.294,255.8232,7.3461e-05,8.81e-06,0.0,0 STARLINK-3159,1 49415U 21104H   24045.09858846  .00000881  00000-0  73461-4 0  9996,2 49415  53.2184   6.6086 0001615 104.2940 255.8232 15.08846672124840,6917.86,95.437,540.842,538.608,0.0
49415.0,STARLINK-3159,PAYLOAD,2024-02-15 03:48:08,15.08836431,0.0001548,53.2181,1.854,84.7982,275.3186,0.00011905,1.607e-05,0.0,0 STARLINK-3159,1 49415U 21104H   24046.15843749  .00001607  00000-0  11905-3 0  9991,2 49415  53.2181   1.8540 0001548  84.7982 275.3186 15.08836431126098,6917.891,95.438,540.827,538.685,0.0
49415.0,STARLINK-3159,PAYLOAD,2024-02-15 06:58:55,15.08839528,0.0001554,53.2183,1.2563,85.8505,274.2664,0.0001172,1.578e-05,0.0,0 STARLINK-3159,1 49415U 21104H   24046.29091562  .00001578  00000-0  11720-3 0  9996,2 49415  53.2183   1.2563 0001554  85.8505 274.2664 15.08839528125020,6917.882,95.438,540.822,538.672,0.0
49415.0,STARLINK-3159,PAYLOAD,2024-02-15 13:20:28,15.08828124,0.0002008,53.2183,0.069,79.1851,280.9367,-6.716e-05,-1.357e-05,0.0,0 STARLINK-3159,1 49415U 21104H   24046.55588444 -.00001357  00000-0 -67160-4 0  9992,2 49415  53.2183   0.0690 0002008  79.1851 280.9367 15.08828124126152,6917.917,95.438,541.171,538.393,0.0
49415.0,STARLINK-3159,PAYLOAD,2024-02-16 03:38:56,15.0883689,0.0001114,53.2182,357.3928,90.2479,269.8641,8.2949e-05,1.032e-05,0.0,0 STARLINK-3159,1 49415U 21104H   24047.15204019  .00001032  00000-0  82949-4 0  9992,2 49415  53.2182 357.3928 0001114  90.2479 269.8641 15.08836890126240,6917.89,95.438,540.526,538.984,0.0
49415.0,STARLINK-3159,PAYLOAD,2024-02-16 06:49:41,15.08845798,0.0001783,53.2184,356.8005,105.3134,254.8056,8.0098e-05,9.87e-06,0.0,0 STARLINK-3159,1 49415U 21104H   24047.28451331  .00000987  00000-0  80098-4 0  9998,2 49415  53.2184 356.8005 0001783 105.3134 254.8056 15.08845798126263,6917.863,95.437,540.961,538.494,0.0
49415.0,STARLINK-3159,PAYLOAD,2024-02-16 13:11:14,15.08843032,0.0001303,53.218,355.6069,75.8535,284.2602,0.00019035,2.743e-05,0.0,0 STARLINK-3159,1 49415U 21104H   24047.54947657  .00002743  00000-0  19035-3 0  9992,2 49415  53.2180 355.6069 0001303  75.8535 284.2602 15.08843032125217,6917.871,95.437,540.638,538.835,0.0
49415.0,STARLINK-3159,PAYLOAD,2024-02-17 03:29:43,15.08839076,0.00016,53.2201,352.9328,86.003,274.1145,9.3238e-05,1.196e-05,0.0,0 STARLINK-3159,1 49415U 21104H   24048.14564049  .00001196  00000-0  93238-4 0  9998,2 49415  53.2201 352.9328 0001600  86.0030 274.1145 15.08839076126396,6917.883,95.438,540.855,538.641,0.0
49415.0,STARLINK-3159,PAYLOAD,2024-02-17 13:02:02,15.088402,0.0001608,53.2203,351.1487,88.6328,271.4849,9.5631e-05,1.234e-05,0.0,0 STARLINK-3159,1 49415U 21104H   24048.54308034  .00001234  00000-0  95631-4 0  9994,2 49415  53.2203 351.1487 0001608  88.6328 271.4849 15.08840200125369,6917.88,95.438,540.857,538.632,0.0
49415.0,STARLINK-3159,PAYLOAD,2024-02-18 04:55:52,15.08856394,0.000136,53.2195,348.1748,95.9499,264.1648,0.00012054,1.632e-05,0.0,0 STARLINK-3159,1 49415U 21104H   24049.20546904  .00001632  00000-0  12054-3 0  9997,2 49415  53.2195 348.1748 0001360  95.9499 264.1648 15.08856394126559,6917.83,95.437,540.636,538.754,0.0
49415.0,STARLINK-3159,PAYLOAD,2024-02-19 03:11:17,15.08847317,0.0001551,53.2199,344.0124,90.8324,269.2846,1.865e-05,9e-08,0.0,0 STARLINK-3159,1 49415U 21104H   24050.13283755  .00000009  00000-0  18650-4 0  9999,2 49415  53.2199 344.0124 0001551  90.8324 269.2846 15.08847317126695,6917.858,95.437,540.796,538.65,0.0
49415.0,STARLINK-3159,PAYLOAD,2024-02-19 12:43:36,15.08832474,0.0001905,53.2207,342.2281,82.7047,277.4162,-2.0409e-05,-6.13e-06,0.0,0 STARLINK-3159,1 49415U 21104H   24050.53028934 -.00000613  00000-0 -20409-4 0  9997,2 49415  53.2207 342.2281 0001905  82.7047 277.4162 15.08832474125660,6917.903,95.438,541.086,538.451,0.0
49415.0,STARLINK-3159,PAYLOAD,2024-02-20 04:37:28,15.08838916,0.000168,53.2207,339.2504,92.1873,267.9311,-5.6165e-05,-1.182e-05,0.0,0 STARLINK-3159,1 49415U 21104H   24051.19268683 -.00001182  00000-0 -56165-4 0  9997,2 49415  53.2207 339.2504 0001680  92.1873 267.9311 15.08838916126855,6917.884,95.438,540.911,538.586,0.0
49415.0,STARLINK-3159,PAYLOAD,2024-02-20 12:34:23,15.08843698,0.0001891,53.2211,337.7687,82.2968,277.8239,-1.7762e-05,-5.71e-06,0.0,0 STARLINK-3159,1 49415U 21104H   24051.52388419 -.00000571  00000-0 -17762-4 0  9995,2 49415  53.2211 337.7687 0001891  82.2968 277.8239 15.08843698125811,6917.869,95.437,541.042,538.426,0.0
49415.0,STARLINK-3159,PAYLOAD,2024-02-21 01:17:27,15.08854497,0.000169,53.2195,335.3889,81.7104,278.408,0.0001083,1.437e-05,0.0,0 STARLINK-3159,1 49415U 21104H   24052.05379468  .00001437  00000-0  10830-3 0  9996,2 49415  53.2195 335.3889 0001690  81.7104 278.4080 15.08854497126982,6917.836,95.437,540.87,538.532,0.0
49415.0,STARLINK-3159,PAYLOAD,2024-02-21 12:25:10,15.08848887,0.0001471,53.2174,333.3112,83.1765,276.9394,-4.0568e-06,-3.53e-06,0.0,0 STARLINK-3159,1 49415U 21104H   24052.51747820 -.00000353  00000-0 -40568-5 0  9999,2 49415  53.2174 333.3112 0001471  83.1765 276.9394 15.08848887125966,6917.853,95.437,540.736,538.701,0.0
49415.0,STARLINK-3159,PAYLOAD,2024-02-21 21:57:29,15.08836095,0.000156,53.2209,331.5207,101.8597,258.257,0.0001179,1.589e-05,0.0,0 STARLINK-3159,1 49415U 21104H   24052.91492420  .00001589  00000-0  11790-3 0  9999,2 49415  53.2209 331.5207 0001560 101.8597 258.2570 15.08836095126025,6917.892,95.438,540.837,538.678,0.0
49415.0,STARLINK-3159,PAYLOAD,2024-02-22 04:19:01,15.08841446,0.00014,53.2189,330.3311,113.3478,246.7661,9.2653e-05,1.187e-05,0.0,0 STARLINK-3159,1 49415U 21104H   24053.17988088  .00001187  00000-0  92653-4 0  9990,2 49415  53.2189 330.3311 0001400 113.3478 246.7661 15.08841446127158,6917.876,95.437,540.709,538.772,0.0
49415.0,STARLINK-3159,PAYLOAD,2024-02-22 21:48:16,15.08842374,0.0001424,53.2192,327.0594,115.3375,244.7765,-3.2358e-05,-8.03e-06,0.0,0 STARLINK-3159,1 49415U 21104H   24053.90852297 -.00000803  00000-0 -32358-4 0  9995,2 49415  53.2192 327.0594 0001424 115.3375 244.7765 15.08842374126177,6917.873,95.437,540.723,538.753,0.0
49415.0,STARLINK-3159,PAYLOAD,2024-02-23 10:31:21,15.08845508,0.0001399,53.2189,324.6801,88.9917,271.1235,-7.1043e-05,-1.419e-05,0.0,0 STARLINK-3159,1 49415U 21104H   24054.43844182 -.00001419  00000-0 -71043-4 0  9996,2 49415  53.2189 324.6801 0001399  88.9917 271.1235 15.08845508127343,6917.864,95.437,540.696,538.761,0.0
49415.0,STARLINK-3159,PAYLOAD,2024-02-23 21:39:03,15.08833362,0.0001281,53.2191,322.5986,103.446,256.6675,2.3893e-05,9.2e-07,0.0,0 STARLINK-3159,1 49415U 21104H   24054.90212821  .00000092  00000-0  23893-4 0  9991,2 49415  53.2191 322.5986 0001281 103.4460 256.6675 15.08833362126321,6917.901,95.438,540.652,538.879,0.0
49415.0,STARLINK-3159,PAYLOAD,2024-02-24 10:22:08,15.08845293,0.0001152,53.2182,320.2236,80.2211,279.8911,5.2416e-05,5.47e-06,0.0,0 STARLINK-3159,1 49415U 21104H   24055.43204063  .00000547  00000-0  52416-4 0  9997,2 49415  53.2182 320.2236 0001152  80.2211 279.8911 15.08845293126402,6917.864,95.437,540.526,538.932,0.0
49415.0,STARLINK-3159,PAYLOAD,2024-02-25 02:16:00,15.08839917,0.0001128,53.2182,317.2512,98.6948,261.4172,-8.4623e-07,-3.01e-06,0.0,0 STARLINK-3159,1 49415U 21104H   24056.09444737 -.00000301  00000-0 -84623-6 0  9991,2 49415  53.2182 317.2512 0001128  98.6948 261.4172 15.08839917127591,6917.881,95.438,540.526,538.965,0.0
49415.0,STARLINK-3159,PAYLOAD,2024-02-25 22:56:00,15.08836322,0.0001329,53.2183,313.3876,109.111,251.0026,0.00023812,3.503e-05,0.0,0 STARLINK-3159,1 49415U 21104H   24056.95556354  .00003503  00000-0  23812-3 0  9990,2 49415  53.2183 313.3876 0001329 109.1110 251.0026 15.08836322126638,6917.892,95.438,540.676,538.837,0.0
49415.0,STARLINK-3159,PAYLOAD,2024-02-26 02:06:46,15.08836786,0.0001379,53.2188,312.7925,106.743,253.3713,0.00040481,6.16e-05,0.0,0 STARLINK-3159,1 49415U 21104H   24057.08803994  .00006160  00000-0  40481-3 0  9993,2 49415  53.2188 312.7925 0001379 106.7430 253.3713 15.08836786127749,6917.89,95.438,540.709,538.801,0.0
49415.0,STARLINK-3159,PAYLOAD,2024-02-26 16:25:15,15.0883433,0.0001489,53.2185,310.1153,80.2499,279.8661,4.3034e-05,3.97e-06,0.0,0 STARLINK-3159,1 49415U 21104H   24057.68421267  .00000397  00000-0  43034-4 0  9992,2 49415  53.2185 310.1153 0001489  80.2499 279.8661 15.08834330127832,6917.898,95.438,540.793,538.733,0.0
49415.0,STARLINK-3159,PAYLOAD,2024-02-26 22:46:48,15.08825194,0.000128,53.2181,308.9245,135.8636,224.2459,0.00021969,3.209e-05,0.0,0 STARLINK-3159,1 49415U 21104H   24057.94916880  .00003209  00000-0  21969-3 0  9998,2 49415  53.2181 308.9245 0001280 135.8636 224.2459 15.08825194126784,6917.926,95.438,540.676,538.905,0.0
49415.0,STARLINK-3159,PAYLOAD,2024-02-27 01:57:34,15.08841774,0.0001383,53.2184,308.3298,93.5535,266.5615,0.00011324,1.515e-05,0.0,0 STARLINK-3159,1 49415U 21104H   24058.08164700  .00001515  00000-0  11324-3 0  9992,2 49415  53.2184 308.3298 0001383  93.5535 266.5615 15.08841774127899,6917.875,95.437,540.697,538.783,0.0
49415.0,STARLINK-3159,PAYLOAD,2024-02-27 09:54:30,15.08836647,0.0001404,53.2173,306.8448,84.0819,276.0333,2.2927e-05,7.7e-07,0.0,0 STARLINK-3159,1 49415U 21104H   24058.41285004  .00000077  00000-0  22927-4 0  9994,2 49415  53.2173 306.8448 0001404  84.0819 276.0333 15.08836647126852,6917.891,95.438,540.727,538.784,0.0
